{"type": "FeatureCollection", "features": [ {"type": "Feature", "properties": {"norad_id": 29769, "name": "FENGYUN 1C DEB", "group": "fengyun-1c-debris", "lat": 31.108071122456206, "lon": 50.645152429705725, "alt_km": 816.8584693146968, "timestamp": "2025-12-24T16:52:41.803050+00:00", "meta": {"OBJECT_NAME": "FENGYUN 1C DEB", "OBJECT_ID": "1999-025BK", "EPOCH": "2025-12-24T03:08:23.721504", "MEAN_MOTION": 14.1358475, "ECCENTRICITY": 0.00931012, "INCLINATION": 99.1044, "RA_OF_ASC_NODE": 55.6154, "ARG_OF_PERICENTER": 98.6989, "MEAN_ANOMALY": 262.4742, "EPHEMERIS_TYPE": 0, "CLASSIFICATION_TYPE": "U", "NORAD_CAT_ID": 29769, "ELEMENT_SET_NO": 999, "REV_AT_EPOCH": 96842, "BSTAR": 0.0012200405, "MEAN_MOTION_DOT": 2.352e-05, "MEAN_MOTION_DDOT": 0}, "tle": {"line1": "1 29769U 99025BK  25358.13083011  .00002352  00000+0  12200-2 0  9996", "line2": "2 29769  99.1044  55.6154 0093101  98.6989 262.4742 14.13584750968425"}}, "geometry": {"type": "Point", "coordinates": [50.645152429705725, 31.108071122456206]}}, {"type": "Feature", "properties": {"norad_id": 29770, "name": "FENGYUN 1C DEB", "group": "fengyun-1c-debris", "lat": 75.2101030195467, "lon": -69.58503936340138, "alt_km": 850.0226891927832, "timestamp": "2025-12-24T16:52:41.803060+00:00", "meta": {"OBJECT_NAME": "FENGYUN 1C DEB", "OBJECT_ID": "1999-025BL", "EPOCH": "2025-12-24T04:41:10.067424", "MEAN_MOTION": 14.20182396, "ECCENTRICITY": 0.00638731, "INCLINATION": 98.8453, "RA_OF_ASC_NODE": 73.7653, "ARG_OF_PERICENTER": 238.4804, "MEAN_ANOMALY": 148.1062, "EPHEMERIS_TYPE": 0, "CLASSIFICATION_TYPE": "U", "NORAD_CAT_ID": 29770, "ELEMENT_SET_NO": 999, "REV_AT_EPOCH": 97249, "BSTAR": 0.001511515, "MEAN_MOTION_DOT": 3.249e-05, "MEAN_MOTION_DDOT": 0}, "tle": {"line1": "1 29770U 99025BL  25358.19525541  .00003249  00000+0  15115-2 0  9997", "line2": "2 29770  98.8453  73.7653 0063873 238.4804 148.1062 14.20182396972490"}}, "geometry": {"type": "Point", "coordinates": [-69.58503936340138, 75.2101030195467]}}, {"type": "Feature", "properties": {"norad_id": 29772, "name": "FENGYUN 1C DEB", "group": "fengyun-1c-debris", "lat": 14.87081635968611, "lon": -155.27095585348323, "alt_km": 929.9866057785166, "timestamp": "2025-12-24T16:52:41.803072+00:00", "meta": {"OBJECT_NAME": "FENGYUN 1C DEB", "OBJECT_ID": "1999-025BN", "EPOCH": "2025-12-17T20:35:52.099296", "MEAN_MOTION": 14.03229234, "ECCENTRICITY": 0.01377936, "INCLINATION": 98.3866, "RA_OF_ASC_NODE": 200.6611, "ARG_OF_PERICENTER": 276.0163, "MEAN_ANOMALY": 98.373, "EPHEMERIS_TYPE": 0, "CLASSIFICATION_TYPE": "U", "NORAD_CAT_ID": 29772, "ELEMENT_SET_NO": 999, "REV_AT_EPOCH": 96327, "BSTAR": 0.00087765197, "MEAN_MOTION_DOT": 1.448e-05, "MEAN_MOTION_DDOT": 0}, "tle": {"line1": "1 29772U 99025BN  25351.85824189  .00001448  00000+0  87765-3 0  9995", "line2": "2 29772  98.3866 200.6611 0137793 276.0163  98.3730 14.03229234963277"}}, "geometry": {"type": "Point", "coordinates": [-155.27095585348323, 14.87081635968611]}}, {"type": "Feature", "properties": {"norad_id": 29773, "name": "FENGYUN 1C DEB", "group": "fengyun-1c-debris", "lat": 28.802598170404064, "lon": 147.65232600729482, "alt_km": 821.3602891973624, "timestamp": "2025-12-24T16:52:41.803084+00:00", "meta": {"OBJECT_NAME": "FENGYUN 1C DEB", "OBJECT_ID": "1999-025BP", "EPOCH": "2025-12-23T21:17:28.539168", "MEAN_MOTION": 14.2759029, "ECCENTRICITY": 0.004648, "INCLINATION": 98.9879, "RA_OF_ASC_NODE": 151.8055, "ARG_OF_PERICENTER": 257.9641, "MEAN_ANOMALY": 258.9659, "EPHEMERIS_TYPE": 0, "CLASSIFICATION_TYPE": "U", "NORAD_CAT_ID": 29773, "ELEMENT_SET_NO": 999, "REV_AT_EPOCH": 98356, "BSTAR": 0.00036315, "MEAN_MOTION_DOT": 8.57e-06, "MEAN_MOTION_DDOT": 0}, "tle": {"line1": "1 29773U 99025BP  25357.88713587  .00000857  00000+0  36315-3 0  9992", "line2": "2 29773  98.9879 151.8055 0046480 257.9641 258.9659 14.27590290983565"}}, "geometry": {"type": "Point", "coordinates": [147.65232600729482, 28.802598170404064]}}, {"type": "Feature", "properties": {"norad_id": 29774, "name": "FENGYUN 1C DEB", "group": "fengyun-1c-debris", "lat": 31.639960999062794, "lon": 125.04473609047575, "alt_km": 794.6595670755169, "timestamp": "2025-12-24T16:52:41.803095+00:00", "meta": {"OBJECT_NAME": "FENGYUN 1C DEB", "OBJECT_ID": "1999-025BQ", "EPOCH": "2025-12-23T14:00:50.851296", "MEAN_MOTION": 14.22740808, "ECCENTRICITY": 0.00513462, "INCLINATION": 99.0779, "RA_OF_ASC_NODE": 298.2383, "ARG_OF_PERICENTER": 92.7645, "MEAN_ANOMALY": 84.6446, "EPHEMERIS_TYPE": 0, "CLASSIFICATION_TYPE": "U", "NORAD_CAT_ID": 29774, "ELEMENT_SET_NO": 999, "REV_AT_EPOCH": 98229, "BSTAR": 0.00016973839, "MEAN_MOTION_DOT": 3.39e-06, "MEAN_MOTION_DDOT": 0}, "tle": {"line1": "1 29774U 99025BQ  25357.58392189  .00000339  00000+0  16974-3 0  9995", "line2": "2 29774  99.0779 298.2383 0051346  92.7645  84.6446 14.22740808982297"}}, "geometry": {"type": "Point", "coordinates": [125.04473609047575, 31.639960999062794]}}, {"type": "Feature", "properties": {"norad_id": 29776, "name": "FENGYUN 1C DEB", "group": "fengyun-1c-debris", "lat": 67.90954773545967, "lon": -132.53318815745416, "alt_km": 870.0207048179382, "timestamp": "2025-12-24T16:52:41.803106+00:00", "meta": {"OBJECT_NAME": "FENGYUN 1C DEB", "OBJECT_ID": "1999-025BS", "EPOCH": "2025-12-24T01:15:54.398880", "MEAN_MOTION": 14.07781425, "ECCENTRICITY": 0.00230117, "INCLINATION": 98.77, "RA_OF_ASC_NODE": 24.4799, "ARG_OF_PERICENTER": 237.7813, "MEAN_ANOMALY": 177.5935, "EPHEMERIS_TYPE": 0, "CLASSIFICATION_TYPE": "U", "NORAD_CAT_ID": 29776, "ELEMENT_SET_NO": 999, "REV_AT_EPOCH": 97239, "BSTAR": 6.1616418e-05, "MEAN_MOTION_DOT": 6.2e-07, "MEAN_MOTION_DDOT": 0}, "tle": {"line1": "1 29776U 99025BS  25358.05271295  .00000062  00000+0  61616-4 0  9991", "line2": "2 29776  98.7700  24.4799 0023011 237.7813 177.5935 14.07781425972393"}}, "geometry": {"type": "Point", "coordinates": [-132.53318815745416, 67.90954773545967]}}, {"type": "Feature", "properties": {"norad_id": 29777, "name": "FENGYUN 1C DEB", "group": "fengyun-1c-debris", "lat": -22.97989620077442, "lon": -128.39677374910403, "alt_km": 865.2058597082687, "timestamp": "2025-12-24T16:52:41.803117+00:00", "meta": {"OBJECT_NAME": "FENGYUN 1C DEB", "OBJECT_ID": "1999-025BT", "EPOCH": "2025-12-24T02:24:43.473024", "MEAN_MOTION": 13.92109016, "ECCENTRICITY": 0.00931734, "INCLINATION": 99.2818, "RA_OF_ASC_NODE": 54.9764, "ARG_OF_PERICENTER": 179.0207, "MEAN_ANOMALY": 244.5584, "EPHEMERIS_TYPE": 0, "CLASSIFICATION_TYPE": "U", "NORAD_CAT_ID": 29777, "ELEMENT_SET_NO": 999, "REV_AT_EPOCH": 96199, "BSTAR": 0.00022466645, "MEAN_MOTION_DOT": 2.53e-06, "MEAN_MOTION_DDOT": 0}, "tle": {"line1": "1 29777U 99025BT  25358.10050316  .00000253  00000+0  22467-3 0  9999", "line2": "2 29777  99.2818  54.9764 0093173 179.0207 244.5584 13.92109016961993"}}, "geometry": {"type": "Point", "coordinates": [-128.39677374910403, -22.97989620077442]}}, {"type": "Feature", "properties": {"norad_id": 29779, "name": "FENGYUN 1C DEB", "group": "fengyun-1c-debris", "lat": -0.5321159592093881, "lon": 9.662335966297377, "alt_km": 880.5611386132878, "timestamp": "2025-12-24T16:52:41.803127+00:00", "meta": {"OBJECT_NAME": "FENGYUN 1C DEB", "OBJECT_ID": "1999-025BV", "EPOCH": "2025-12-23T18:47:41.074656", "MEAN_MOTION": 14.13452155, "ECCENTRICITY": 0.00639604, "INCLINATION": 98.6769, "RA_OF_ASC_NODE": 8.6886, "ARG_OF_PERICENTER": 132.9549, "MEAN_ANOMALY": 227.7013, "EPHEMERIS_TYPE": 0, "CLASSIFICATION_TYPE": "U", "NORAD_CAT_ID": 29779, "ELEMENT_SET_NO": 999, "REV_AT_EPOCH": 97568, "BSTAR": 0.00020006984, "MEAN_MOTION_DOT": 3.42e-06, "MEAN_MOTION_DDOT": 0}, "tle": {"line1": "1 29779U 99025BV  25357.78311429  .00000342  00000+0  20007-3 0  9996", "line2": "2 29779  98.6769   8.6886 0063960 132.9549 227.7013 14.13452155975682"}}, "geometry": {"type": "Point", "coordinates": [9.662335966297377, -0.5321159592093881]}}, {"type": "Feature", "properties": {"norad_id": 29780, "name": "FENGYUN 1C DEB", "group": "fengyun-1c-debris", "lat": 79.29662140043267, "lon": 160.09639169910497, "alt_km": 784.130456677919, "timestamp": "2025-12-24T16:52:41.803137+00:00", "meta": {"OBJECT_NAME": "FENGYUN 1C DEB", "OBJECT_ID": "1999-025BW", "EPOCH": "2025-12-24T01:13:33.221280", "MEAN_MOTION": 14.21114934, "ECCENTRICITY": 0.00417299, "INCLINATION": 99.2784, "RA_OF_ASC_NODE": 279.5429, "ARG_OF_PERICENTER": 95.4843, "MEAN_ANOMALY": 265.1095, "EPHEMERIS_TYPE": 0, "CLASSIFICATION_TYPE": "U", "NORAD_CAT_ID": 29780, "ELEMENT_SET_NO": 999, "REV_AT_EPOCH": 97239, "BSTAR": 0.0017158238, "MEAN_MOTION_DOT": 3.714e-05, "MEAN_MOTION_DDOT": 0}, "tle": {"line1": "1 29780U 99025BW  25358.05107895  .00003714  00000+0  17158-2 0  9997", "line2": "2 29780  99.2784 279.5429 0041729  95.4843 265.1095 14.21114934972399"}}, "geometry": {"type": "Point", "coordinates": [160.09639169910497, 79.29662140043267]}}, {"type": "Feature", "properties": {"norad_id": 29781, "name": "FENGYUN 1C DEB", "group": "fengyun-1c-debris", "lat": 79.11713492889199, "lon": -61.25604555119038, "alt_km": 838.718780136327, "timestamp": "2025-12-24T16:52:41.803148+00:00", "meta": {"OBJECT_NAME": "FENGYUN 1C DEB", "OBJECT_ID": "1999-025BX", "EPOCH": "2025-12-23T12:02:25.742976", "MEAN_MOTION": 14.05251989, "ECCENTRICITY": 0.00723234, "INCLINATION": 98.8105, "RA_OF_ASC_NODE": 351.3501, "ARG_OF_PERICENTER": 143.028, "MEAN_ANOMALY": 345.9701, "EPHEMERIS_TYPE": 0, "CLASSIFICATION_TYPE": "U", "NORAD_CAT_ID": 29781, "ELEMENT_SET_NO": 999, "REV_AT_EPOCH": 96794, "BSTAR": 0.00065155902, "MEAN_MOTION_DOT": 1.036e-05, "MEAN_MOTION_DDOT": 0}, "tle": {"line1": "1 29781U 99025BX  25357.50168684  .00001036  00000+0  65156-3 0  9997", "line2": "2 29781  98.8105 351.3501 0072323 143.0280 345.9701 14.05251989967941"}}, "geometry": {"type": "Point", "coordinates": [-61.25604555119038, 79.11713492889199]}}]}